STARLINK-36953          
1 68010U 26039AA  26072.91668981  .00111770  00000+0  52785-3 0  9996
2 68010  42.9996  28.7615 0001530 270.4599 224.8771 15.81961185  3559
STARLINK-36991          
1 68011U 26039AB  26072.91668981 -.01964241  00000+0 -17340-1 0  9995
2 68011  42.9992  28.8860 0001206 264.7335 180.5636 15.70808773  3552
STARLINK-36936          
1 68012U 26039AC  26072.91668981 -.01957055  00000+0 -11110-1 0  9990
2 68012  42.9994  28.7293 0000877 262.1344 245.7069 15.81211409  3559
STARLINK-36967          
1 68013U 26039AD  26072.91668981 -.01973143  00000+0 -16398-1 0  9990
2 68013  42.9989  28.8749 0001217 266.1363 183.4795 15.72234910  3551
STARLINK-36985          
1 68014U 26039AE  26072.91668981  .00093817  00000+0  44449-3 0  9999
2 68014  42.9995  28.7406 0001478 272.8734 231.0109 15.81956728  3550
STARLINK-36335          
1 68015U 26040A   26072.91668981 -.01376310  56434-3 -34828-2 0  9992
2 68015  97.2721  21.4598 0001074  90.3607 248.5063 15.95591004  3051
STARLINK-36923          
1 68016U 26040B   26072.91668981 -.01369767  56016-3 -34418-2 0  9992
2 68016  97.2726  21.4637 0001090  74.8769 271.9278 15.95721732  3102
STARLINK-36568          
1 68017U 26040C   26072.91668981 -.01372731  56283-3 -34361-2 0  9991
2 68017  97.2724  21.4653 0001098  74.6843 275.8444 15.95793757  3102
STARLINK-36930          
1 68018U 26040D   26072.91668981 -.01357105  55018-3 -34233-2 0  9993
2 68018  97.2720  21.4619 0001007  75.6306 267.1932 15.95647446  3105
STARLINK-36921          
1 68019U 26040E   26072.91668981 -.01360138  55415-3 -33779-2 0  9999
2 68019  97.2731  21.4688 0001047  74.7773 282.6719 15.95938292  3103
STARLINK-36928          
1 68020U 26040F   26072.91668981 -.01368185  55986-3 -34098-2 0  9999
2 68020  97.2723  21.4660 0001106  76.4480 277.1669 15.95874313  3102
STARLINK-36858          
1 68021U 26040G   26073.02479919  .00367311  67816-4  41588-3 0  9990
2 68021  97.2744  21.6279 0000896 159.5942 200.5377 16.09264824  2038
STARLINK-36916          
1 68022U 26040H   26072.91668981 -.01367362  56049-3 -33690-2 0  9995
2 68022  97.2726  21.4713 0000949  83.1913 281.8753 15.96087202  3106
STARLINK-36871          
1 68023U 26040J   26072.91668981 -.01372994  56526-3 -33682-2 0  9994
2 68023  97.2724  21.4722 0001058  70.7641 298.1481 15.96168436  3105
STARLINK-36891          
1 68024U 26040K   26072.91668981 -.01381449  57215-3 -33761-2 0  9994
2 68024  97.2725  21.4745 0001074  68.4077 305.1071 15.96239782  3104
STARLINK-36378          
1 68025U 26040L   26072.91668981 -.01392181  58135-3 -33744-2 0  9993
2 68025  97.2743  21.4789 0001006  67.5548 314.2268 15.96394205  3056
