[{"OBJECT_NAME":"STARLINK-36953","OBJECT_ID":"2026-039AA","EPOCH":"2026-03-13T22:00:01.999584","MEAN_MOTION":15.81961185,"ECCENTRICITY":0.00015301,"INCLINATION":42.9996,"RA_OF_ASC_NODE":28.7615,"ARG_OF_PERICENTER":270.4599,"MEAN_ANOMALY":224.8771,"EPHEMERIS_TYPE":0,"CLASSIFICATION_TYPE":"U","NORAD_CAT_ID":68010,"ELEMENT_SET_NO":999,"REV_AT_EPOCH":355,"BSTAR":0.00052785331,"MEAN_MOTION_DOT":0.0011177,"MEAN_MOTION_DDOT":0},{"OBJECT_NAME":"STARLINK-36991","OBJECT_ID":"2026-039AB","EPOCH":"2026-03-13T22:00:01.999584","MEAN_MOTION":15.70808773,"ECCENTRICITY":0.00012067,"INCLINATION":42.9992,"RA_OF_ASC_NODE":28.886,"ARG_OF_PERICENTER":264.7335,"MEAN_ANOMALY":180.5636,"EPHEMERIS_TYPE":0,"CLASSIFICATION_TYPE":"U","NORAD_CAT_ID":68011,"ELEMENT_SET_NO":999,"REV_AT_EPOCH":355,"BSTAR":-0.017339546,"MEAN_MOTION_DOT":-0.01964241,"MEAN_MOTION_DDOT":0},{"OBJECT_NAME":"STARLINK-36936","OBJECT_ID":"2026-039AC","EPOCH":"2026-03-13T22:00:01.999584","MEAN_MOTION":15.81211409,"ECCENTRICITY":8.777e-5,"INCLINATION":42.9994,"RA_OF_ASC_NODE":28.7293,"ARG_OF_PERICENTER":262.1344,"MEAN_ANOMALY":245.7069,"EPHEMERIS_TYPE":0,"CLASSIFICATION_TYPE":"U","NORAD_CAT_ID":68012,"ELEMENT_SET_NO":999,"REV_AT_EPOCH":355,"BSTAR":-0.01110994,"MEAN_MOTION_DOT":-0.01957055,"MEAN_MOTION_DDOT":0},{"OBJECT_NAME":"STARLINK-36967","OBJECT_ID":"2026-039AD","EPOCH":"2026-03-13T22:00:01.999584","MEAN_MOTION":15.7223491,"ECCENTRICITY":0.00012176,"INCLINATION":42.9989,"RA_OF_ASC_NODE":28.8749,"ARG_OF_PERICENTER":266.1363,"MEAN_ANOMALY":183.4795,"EPHEMERIS_TYPE":0,"CLASSIFICATION_TYPE":"U","NORAD_CAT_ID":68013,"ELEMENT_SET_NO":999,"REV_AT_EPOCH":355,"BSTAR":-0.016397788,"MEAN_MOTION_DOT":-0.01973143,"MEAN_MOTION_DDOT":0},{"OBJECT_NAME":"STARLINK-36985","OBJECT_ID":"2026-039AE","EPOCH":"2026-03-13T22:00:01.999584","MEAN_MOTION":15.81956728,"ECCENTRICITY":0.00014785,"INCLINATION":42.9995,"RA_OF_ASC_NODE":28.7406,"ARG_OF_PERICENTER":272.8734,"MEAN_ANOMALY":231.0109,"EPHEMERIS_TYPE":0,"CLASSIFICATION_TYPE":"U","NORAD_CAT_ID":68014,"ELEMENT_SET_NO":999,"REV_AT_EPOCH":355,"BSTAR":0.00044448521,"MEAN_MOTION_DOT":0.00093817,"MEAN_MOTION_DDOT":0},{"OBJECT_NAME":"STARLINK-36335","OBJECT_ID":"2026-040A","EPOCH":"2026-03-13T22:00:01.999584","MEAN_MOTION":15.95591004,"ECCENTRICITY":0.00010742,"INCLINATION":97.2721,"RA_OF_ASC_NODE":21.4598,"ARG_OF_PERICENTER":90.3607,"MEAN_ANOMALY":248.5063,"EPHEMERIS_TYPE":0,"CLASSIFICATION_TYPE":"U","NORAD_CAT_ID":68015,"ELEMENT_SET_NO":999,"REV_AT_EPOCH":305,"BSTAR":-0.0034827597,"MEAN_MOTION_DOT":-0.0137631,"MEAN_MOTION_DDOT":0.00056433752},{"OBJECT_NAME":"STARLINK-36923","OBJECT_ID":"2026-040B","EPOCH":"2026-03-13T22:00:01.999584","MEAN_MOTION":15.95721732,"ECCENTRICITY":0.00010905,"INCLINATION":97.2726,"RA_OF_ASC_NODE":21.4637,"ARG_OF_PERICENTER":74.8769,"MEAN_ANOMALY":271.9278,"EPHEMERIS_TYPE":0,"CLASSIFICATION_TYPE":"U","NORAD_CAT_ID":68016,"ELEMENT_SET_NO":999,"REV_AT_EPOCH":310,"BSTAR":-0.0034418333,"MEAN_MOTION_DOT":-0.01369767,"MEAN_MOTION_DDOT":0.00056015526},{"OBJECT_NAME":"STARLINK-36568","OBJECT_ID":"2026-040C","EPOCH":"2026-03-13T22:00:01.999584","MEAN_MOTION":15.95793757,"ECCENTRICITY":0.0001098,"INCLINATION":97.2724,"RA_OF_ASC_NODE":21.4653,"ARG_OF_PERICENTER":74.6843,"MEAN_ANOMALY":275.8444,"EPHEMERIS_TYPE":0,"CLASSIFICATION_TYPE":"U","NORAD_CAT_ID":68017,"ELEMENT_SET_NO":999,"REV_AT_EPOCH":310,"BSTAR":-0.003436059,"MEAN_MOTION_DOT":-0.01372731,"MEAN_MOTION_DDOT":0.00056282624},{"OBJECT_NAME":"STARLINK-36930","OBJECT_ID":"2026-040D","EPOCH":"2026-03-13T22:00:01.999584","MEAN_MOTION":15.95647446,"ECCENTRICITY":0.00010075,"INCLINATION":97.272,"RA_OF_ASC_NODE":21.4619,"ARG_OF_PERICENTER":75.6306,"MEAN_ANOMALY":267.1932,"EPHEMERIS_TYPE":0,"CLASSIFICATION_TYPE":"U","NORAD_CAT_ID":68018,"ELEMENT_SET_NO":999,"REV_AT_EPOCH":310,"BSTAR":-0.0034233148,"MEAN_MOTION_DOT":-0.01357105,"MEAN_MOTION_DDOT":0.00055018166},{"OBJECT_NAME":"STARLINK-36921","OBJECT_ID":"2026-040E","EPOCH":"2026-03-13T22:00:01.999584","MEAN_MOTION":15.95938292,"ECCENTRICITY":0.00010475,"INCLINATION":97.2731,"RA_OF_ASC_NODE":21.4688,"ARG_OF_PERICENTER":74.7773,"MEAN_ANOMALY":282.6719,"EPHEMERIS_TYPE":0,"CLASSIFICATION_TYPE":"U","NORAD_CAT_ID":68019,"ELEMENT_SET_NO":999,"REV_AT_EPOCH":310,"BSTAR":-0.0033779048,"MEAN_MOTION_DOT":-0.01360138,"MEAN_MOTION_DDOT":0.0005541527},{"OBJECT_NAME":"STARLINK-36928","OBJECT_ID":"2026-040F","EPOCH":"2026-03-13T22:00:01.999584","MEAN_MOTION":15.95874313,"ECCENTRICITY":0.00011063,"INCLINATION":97.2723,"RA_OF_ASC_NODE":21.466,"ARG_OF_PERICENTER":76.448,"MEAN_ANOMALY":277.1669,"EPHEMERIS_TYPE":0,"CLASSIFICATION_TYPE":"U","NORAD_CAT_ID":68020,"ELEMENT_SET_NO":999,"REV_AT_EPOCH":310,"BSTAR":-0.0034097803,"MEAN_MOTION_DOT":-0.01368185,"MEAN_MOTION_DDOT":0.00055985616},{"OBJECT_NAME":"STARLINK-36858","OBJECT_ID":"2026-040G","EPOCH":"2026-03-14T00:35:42.650016","MEAN_MOTION":16.09264824,"ECCENTRICITY":8.96e-5,"INCLINATION":97.2744,"RA_OF_ASC_NODE":21.6279,"ARG_OF_PERICENTER":159.5942,"MEAN_ANOMALY":200.5377,"EPHEMERIS_TYPE":0,"CLASSIFICATION_TYPE":"U","NORAD_CAT_ID":68021,"ELEMENT_SET_NO":999,"REV_AT_EPOCH":203,"BSTAR":0.00041588,"MEAN_MOTION_DOT":0.00367311,"MEAN_MOTION_DDOT":6.7816e-5},{"OBJECT_NAME":"STARLINK-36916","OBJECT_ID":"2026-040H","EPOCH":"2026-03-13T22:00:01.999584","MEAN_MOTION":15.96087202,"ECCENTRICITY":9.495e-5,"INCLINATION":97.2726,"RA_OF_ASC_NODE":21.4713,"ARG_OF_PERICENTER":83.1913,"MEAN_ANOMALY":281.8753,"EPHEMERIS_TYPE":0,"CLASSIFICATION_TYPE":"U","NORAD_CAT_ID":68022,"ELEMENT_SET_NO":999,"REV_AT_EPOCH":310,"BSTAR":-0.0033689755,"MEAN_MOTION_DOT":-0.01367362,"MEAN_MOTION_DDOT":0.00056048851},{"OBJECT_NAME":"STARLINK-36871","OBJECT_ID":"2026-040J","EPOCH":"2026-03-13T22:00:01.999584","MEAN_MOTION":15.96168436,"ECCENTRICITY":0.00010582,"INCLINATION":97.2724,"RA_OF_ASC_NODE":21.4722,"ARG_OF_PERICENTER":70.7641,"MEAN_ANOMALY":298.1481,"EPHEMERIS_TYPE":0,"CLASSIFICATION_TYPE":"U","NORAD_CAT_ID":68023,"ELEMENT_SET_NO":999,"REV_AT_EPOCH":310,"BSTAR":-0.0033681897,"MEAN_MOTION_DOT":-0.01372994,"MEAN_MOTION_DDOT":0.00056525602},{"OBJECT_NAME":"STARLINK-36891","OBJECT_ID":"2026-040K","EPOCH":"2026-03-13T22:00:01.999584","MEAN_MOTION":15.96239782,"ECCENTRICITY":0.00010742,"INCLINATION":97.2725,"RA_OF_ASC_NODE":21.4745,"ARG_OF_PERICENTER":68.4077,"MEAN_ANOMALY":305.1071,"EPHEMERIS_TYPE":0,"CLASSIFICATION_TYPE":"U","NORAD_CAT_ID":68024,"ELEMENT_SET_NO":999,"REV_AT_EPOCH":310,"BSTAR":-0.0033761347,"MEAN_MOTION_DOT":-0.01381449,"MEAN_MOTION_DDOT":0.00057214676},{"OBJECT_NAME":"STARLINK-36378","OBJECT_ID":"2026-040L","EPOCH":"2026-03-13T22:00:01.999584","MEAN_MOTION":15.96394205,"ECCENTRICITY":0.00010063,"INCLINATION":97.2743,"RA_OF_ASC_NODE":21.4789,"ARG_OF_PERICENTER":67.5548,"MEAN_ANOMALY":314.2268,"EPHEMERIS_TYPE":0,"CLASSIFICATION_TYPE":"U","NORAD_CAT_ID":68025,"ELEMENT_SET_NO":999,"REV_AT_EPOCH":305,"BSTAR":-0.0033744153,"MEAN_MOTION_DOT":-0.01392181,"MEAN_MOTION_DDOT":0.00058135115}]
